{
    "links": {
        "self": "http://www.neowsapp.com/rest/v1/neo/54091661?api_key=iIulBulltgU6a56xZRHN4H3l9WmuAYTsLGpBGhQ2"
    },
    "id": "54091661",
    "neo_reference_id": "54091661",
    "name": "(2020 WM2)",
    "designation": "2020 WM2",
    "nasa_jpl_url": "http://ssd.jpl.nasa.gov/sbdb.cgi?sstr=54091661",
    "absolute_magnitude_h": 25.065,
    "estimated_diameter": {
        "kilometers": {
            "estimated_diameter_min": 0.0257961549,
            "estimated_diameter_max": 0.057681956
        },
        "meters": {
            "estimated_diameter_min": 25.7961549294,
            "estimated_diameter_max": 57.6819559802
        },
        "miles": {
            "estimated_diameter_min": 0.0160289826,
            "estimated_diameter_max": 0.0358418947
        },
        "feet": {
            "estimated_diameter_min": 84.6330569385,
            "estimated_diameter_max": 189.2452684581
        }
    },
    "is_potentially_hazardous_asteroid": false,
    "close_approach_data": [
        {
            "close_approach_date": "2020-11-25",
            "close_approach_date_full": "2020-Nov-25 12:11",
            "epoch_date_close_approach": 1606306260000,
            "relative_velocity": {
                "kilometers_per_second": "15.9542139191",
                "kilometers_per_hour": "57435.1701088349",
                "miles_per_hour": "35687.9811156813"
            },
            "miss_distance": {
                "astronomical": "0.0313246431",
                "lunar": "12.1852861659",
                "kilometers": "4686099.886270197",
                "miles": "2911807.4470228386"
            },
            "orbiting_body": "Earth"
        }
    ],
    "orbital_data": {
        "orbit_id": "5",
        "orbit_determination_date": "2020-11-25 05:21:41",
        "first_observation_date": "2020-11-20",
        "last_observation_date": "2020-11-25",
        "data_arc_in_days": 5,
        "observations_used": 45,
        "orbit_uncertainty": "8",
        "minimum_orbit_intersection": ".0140036",
        "jupiter_tisserand_invariant": "3.653",
        "epoch_osculation": "2459174.5",
        "eccentricity": ".5993609008809235",
        "semi_major_axis": "1.937838262294208",
        "inclination": "7.736564070091012",
        "ascending_node_longitude": "251.4352100075158",
        "orbital_period": "985.3141437955846",
        "perihelion_distance": ".7763737756440282",
        "perihelion_argument": "238.0979456100518",
        "aphelion_distance": "3.099302748944389",
        "perihelion_time": "2459221.046875756835",
        "mean_anomaly": "342.9933677721194",
        "mean_motion": ".3653657082534343",
        "equinox": "J2000",
        "orbit_class": {
            "orbit_class_type": "APO",
            "orbit_class_description": "Near-Earth asteroid orbits which cross the Earth’s orbit similar to that of 1862 Apollo",
            "orbit_class_range": "a (semi-major axis) > 1.0 AU; q (perihelion) < 1.017 AU"
        }
    },
    "is_sentry_object": false
}